[{"OBJECT_NAME":"ONEWEB-0614","OBJECT_ID":"2023-004S","EPOCH":"2025-10-28T08:46:26.771232","MEAN_MOTION":13.11416073,"ECCENTRICITY":0.00014208,"INCLINATION":87.8835,"RA_OF_ASC_NODE":67.2528,"ARG_OF_PERICENTER":88.0596,"MEAN_ANOMALY":272.0695,"EPHEMERIS_TYPE":0,"CLASSIFICATION_TYPE":"U","NORAD_CAT_ID":55156,"ELEMENT_SET_NO":999,"REV_AT_EPOCH":13545,"BSTAR":-0.00015638443,"MEAN_MOTION_DOT":-4.3e-7,"MEAN_MOTION_DDOT":0},{"OBJECT_NAME":"ONEWEB-0616","OBJECT_ID":"2023-004T","EPOCH":"2025-10-28T12:54:19.000224","MEAN_MOTION":13.17649937,"ECCENTRICITY":0.00020465,"INCLINATION":87.9124,"RA_OF_ASC_NODE":51.9238,"ARG_OF_PERICENTER":131.0707,"MEAN_ANOMALY":229.0602,"EPHEMERIS_TYPE":0,"CLASSIFICATION_TYPE":"U","NORAD_CAT_ID":55157,"ELEMENT_SET_NO":999,"REV_AT_EPOCH":13719,"BSTAR":0.0002286555,"MEAN_MOTION_DOT":1.02e-6,"MEAN_MOTION_DDOT":0},{"OBJECT_NAME":"ONEWEB-0617","OBJECT_ID":"2023-004U","EPOCH":"2025-10-28T13:58:56.878464","MEAN_MOTION":13.11417076,"ECCENTRICITY":0.00016382,"INCLINATION":87.8838,"RA_OF_ASC_NODE":67.1881,"ARG_OF_PERICENTER":86.5223,"MEAN_ANOMALY":273.6092,"EPHEMERIS_TYPE":0,"CLASSIFICATION_TYPE":"U","NORAD_CAT_ID":55158,"ELEMENT_SET_NO":999,"REV_AT_EPOCH":13550,"BSTAR":0.001178092,"MEAN_MOTION_DOT":4.3e-6,"MEAN_MOTION_DDOT":0},{"OBJECT_NAME":"ONEWEB-0618","OBJECT_ID":"2023-004V","EPOCH":"2025-10-28T10:29:29.378112","MEAN_MOTION":15.09629503,"ECCENTRICITY":0.00167529,"INCLINATION":86.906,"RA_OF_ASC_NODE":271.562,"ARG_OF_PERICENTER":75.5746,"MEAN_ANOMALY":284.735,"EPHEMERIS_TYPE":0,"CLASSIFICATION_TYPE":"U","NORAD_CAT_ID":55159,"ELEMENT_SET_NO":999,"REV_AT_EPOCH":14725,"BSTAR":0.00040505007,"MEAN_MOTION_DOT":6.564e-5,"MEAN_MOTION_DDOT":0},{"OBJECT_NAME":"ONEWEB-0619","OBJECT_ID":"2023-004W","EPOCH":"2025-10-28T13:40:28.520256","MEAN_MOTION":13.17648771,"ECCENTRICITY":0.00012522,"INCLINATION":87.9125,"RA_OF_ASC_NODE":51.8916,"ARG_OF_PERICENTER":105.4242,"MEAN_ANOMALY":254.7028,"EPHEMERIS_TYPE":0,"CLASSIFICATION_TYPE":"U","NORAD_CAT_ID":55160,"ELEMENT_SET_NO":999,"REV_AT_EPOCH":13709,"BSTAR":0.00022354738,"MEAN_MOTION_DOT":1.0e-6,"MEAN_MOTION_DDOT":0},{"OBJECT_NAME":"ONEWEB-0620","OBJECT_ID":"2023-004X","EPOCH":"2025-10-28T10:11:53.232288","MEAN_MOTION":13.11417875,"ECCENTRICITY":0.00017866,"INCLINATION":87.8833,"RA_OF_ASC_NODE":67.2396,"ARG_OF_PERICENTER":94.4686,"MEAN_ANOMALY":265.6646,"EPHEMERIS_TYPE":0,"CLASSIFICATION_TYPE":"U","NORAD_CAT_ID":55161,"ELEMENT_SET_NO":999,"REV_AT_EPOCH":13545,"BSTAR":0.0014727055,"MEAN_MOTION_DOT":5.35e-6,"MEAN_MOTION_DDOT":0},{"OBJECT_NAME":"ONEWEB-0621","OBJECT_ID":"2023-004Y","EPOCH":"2025-10-28T09:01:04.951200","MEAN_MOTION":13.11415233,"ECCENTRICITY":0.00013732,"INCLINATION":87.8845,"RA_OF_ASC_NODE":67.2149,"ARG_OF_PERICENTER":95.8166,"MEAN_ANOMALY":264.3118,"EPHEMERIS_TYPE":0,"CLASSIFICATION_TYPE":"U","NORAD_CAT_ID":55162,"ELEMENT_SET_NO":999,"REV_AT_EPOCH":13542,"BSTAR":-0.0012443935,"MEAN_MOTION_DOT":-4.28e-6,"MEAN_MOTION_DDOT":0},{"OBJECT_NAME":"ONEWEB-0622","OBJECT_ID":"2023-004Z","EPOCH":"2025-10-28T09:08:24.569088","MEAN_MOTION":13.11418012,"ECCENTRICITY":0.00016731,"INCLINATION":87.8834,"RA_OF_ASC_NODE":67.2282,"ARG_OF_PERICENTER":71.293,"MEAN_ANOMALY":288.838,"EPHEMERIS_TYPE":0,"CLASSIFICATION_TYPE":"U","NORAD_CAT_ID":55163,"ELEMENT_SET_NO":999,"REV_AT_EPOCH":13541,"BSTAR":-0.0012835215,"MEAN_MOTION_DOT":-4.42e-6,"MEAN_MOTION_DDOT":0},{"OBJECT_NAME":"ONEWEB-0623","OBJECT_ID":"2023-004AA","EPOCH":"2025-10-28T13:33:11.588544","MEAN_MOTION":13.17652266,"ECCENTRICITY":0.00012568,"INCLINATION":87.9116,"RA_OF_ASC_NODE":51.9454,"ARG_OF_PERICENTER":74.6819,"MEAN_ANOMALY":285.4451,"EPHEMERIS_TYPE":0,"CLASSIFICATION_TYPE":"U","NORAD_CAT_ID":55164,"ELEMENT_SET_NO":999,"REV_AT_EPOCH":13708,"BSTAR":0.00034168098,"MEAN_MOTION_DOT":1.46e-6,"MEAN_MOTION_DDOT":0},{"OBJECT_NAME":"ONEWEB-0624","OBJECT_ID":"2023-004AB","EPOCH":"2025-10-28T12:26:59.821152","MEAN_MOTION":13.12917098,"ECCENTRICITY":0.00015149,"INCLINATION":87.8964,"RA_OF_ASC_NODE":36.6554,"ARG_OF_PERICENTER":94.8821,"MEAN_ANOMALY":265.248,"EPHEMERIS_TYPE":0,"CLASSIFICATION_TYPE":"U","NORAD_CAT_ID":55165,"ELEMENT_SET_NO":999,"REV_AT_EPOCH":13767,"BSTAR":-0.00056363927,"MEAN_MOTION_DOT":-1.91e-6,"MEAN_MOTION_DDOT":0},{"OBJECT_NAME":"ONEWEB-0625","OBJECT_ID":"2023-004AC","EPOCH":"2025-10-28T13:18:35.708544","MEAN_MOTION":13.17650121,"ECCENTRICITY":0.00017098,"INCLINATION":87.9116,"RA_OF_ASC_NODE":51.9433,"ARG_OF_PERICENTER":105.5349,"MEAN_ANOMALY":254.5972,"EPHEMERIS_TYPE":0,"CLASSIFICATION_TYPE":"U","NORAD_CAT_ID":55166,"ELEMENT_SET_NO":999,"REV_AT_EPOCH":13707,"BSTAR":0.00014280524,"MEAN_MOTION_DOT":6.8e-7,"MEAN_MOTION_DDOT":0},{"OBJECT_NAME":"ONEWEB-0626","OBJECT_ID":"2023-004AD","EPOCH":"2025-10-28T13:04:02.255520","MEAN_MOTION":13.17650493,"ECCENTRICITY":0.00022076,"INCLINATION":87.9119,"RA_OF_ASC_NODE":51.9445,"ARG_OF_PERICENTER":98.7746,"MEAN_ANOMALY":261.3636,"EPHEMERIS_TYPE":0,"CLASSIFICATION_TYPE":"U","NORAD_CAT_ID":55167,"ELEMENT_SET_NO":999,"REV_AT_EPOCH":13707,"BSTAR":0.0004386687,"MEAN_MOTION_DOT":1.83e-6,"MEAN_MOTION_DDOT":0},{"OBJECT_NAME":"ONEWEB-0627","OBJECT_ID":"2023-004AE","EPOCH":"2025-10-28T09:08:19.550112","MEAN_MOTION":13.17650496,"ECCENTRICITY":0.00014661,"INCLINATION":87.9115,"RA_OF_ASC_NODE":51.978,"ARG_OF_PERICENTER":80.9789,"MEAN_ANOMALY":279.1509,"EPHEMERIS_TYPE":0,"CLASSIFICATION_TYPE":"U","NORAD_CAT_ID":55168,"ELEMENT_SET_NO":999,"REV_AT_EPOCH":13705,"BSTAR":0.00020989819,"MEAN_MOTION_DOT":9.4e-7,"MEAN_MOTION_DDOT":0},{"OBJECT_NAME":"ONEWEB-0628","OBJECT_ID":"2023-004AF","EPOCH":"2025-10-28T13:36:13.711104","MEAN_MOTION":13.12442648,"ECCENTRICITY":0.00011247,"INCLINATION":87.8974,"RA_OF_ASC_NODE":36.6607,"ARG_OF_PERICENTER":87.2484,"MEAN_ANOMALY":272.8773,"EPHEMERIS_TYPE":0,"CLASSIFICATION_TYPE":"U","NORAD_CAT_ID":55169,"ELEMENT_SET_NO":999,"REV_AT_EPOCH":13765,"BSTAR":0.0013788485,"MEAN_MOTION_DOT":5.09e-6,"MEAN_MOTION_DDOT":0},{"OBJECT_NAME":"ONEWEB-0629","OBJECT_ID":"2023-004AG","EPOCH":"2025-10-28T08:33:04.872960","MEAN_MOTION":13.17647118,"ECCENTRICITY":0.00013863,"INCLINATION":87.9114,"RA_OF_ASC_NODE":51.9793,"ARG_OF_PERICENTER":104.5879,"MEAN_ANOMALY":255.5407,"EPHEMERIS_TYPE":0,"CLASSIFICATION_TYPE":"U","NORAD_CAT_ID":55170,"ELEMENT_SET_NO":999,"REV_AT_EPOCH":13705,"BSTAR":0.00012333771,"MEAN_MOTION_DOT":6.1e-7,"MEAN_MOTION_DDOT":0},{"OBJECT_NAME":"ONEWEB-0631","OBJECT_ID":"2023-004AH","EPOCH":"2025-10-28T12:37:32.051424","MEAN_MOTION":13.18686643,"ECCENTRICITY":0.00022277,"INCLINATION":87.9229,"RA_OF_ASC_NODE":21.4402,"ARG_OF_PERICENTER":89.478,"MEAN_ANOMALY":270.6608,"EPHEMERIS_TYPE":0,"CLASSIFICATION_TYPE":"U","NORAD_CAT_ID":55171,"ELEMENT_SET_NO":999,"REV_AT_EPOCH":13914,"BSTAR":2.3725682e-5,"MEAN_MOTION_DOT":2.2e-7,"MEAN_MOTION_DDOT":0},{"OBJECT_NAME":"ONEWEB-0709","OBJECT_ID":"2023-004AJ","EPOCH":"2025-10-28T09:57:15.482592","MEAN_MOTION":13.11419285,"ECCENTRICITY":0.00025478,"INCLINATION":87.8836,"RA_OF_ASC_NODE":67.2442,"ARG_OF_PERICENTER":97.4034,"MEAN_ANOMALY":262.7384,"EPHEMERIS_TYPE":0,"CLASSIFICATION_TYPE":"U","NORAD_CAT_ID":55172,"ELEMENT_SET_NO":999,"REV_AT_EPOCH":13549,"BSTAR":0.0014229604,"MEAN_MOTION_DOT":5.17e-6,"MEAN_MOTION_DDOT":0}]
