ONEWEB-0614             
1 55156U 23004S   25301.36558763 -.00000043  00000+0 -15638-3 0  9999
2 55156  87.8835  67.2528 0001420  88.0596 272.0695 13.11416073135452
ONEWEB-0616             
1 55157U 23004T   25301.53771991  .00000102  00000+0  22866-3 0  9994
2 55157  87.9124  51.9238 0002046 131.0707 229.0602 13.17649937137197
ONEWEB-0617             
1 55158U 23004U   25301.58260276  .00000430  00000+0  11781-2 0  9996
2 55158  87.8838  67.1881 0001638  86.5223 273.6092 13.11417076135507
ONEWEB-0618             
1 55159U 23004V   25301.43714558  .00006564  00000+0  40505-3 0  9999
2 55159  86.9060 271.5620 0016752  75.5746 284.7350 15.09629503147252
ONEWEB-0619             
1 55160U 23004W   25301.56977454  .00000100  00000+0  22355-3 0  9994
2 55160  87.9125  51.8916 0001252 105.4242 254.7028 13.17648771137092
ONEWEB-0620             
1 55161U 23004X   25301.42492167  .00000535  00000+0  14727-2 0  9998
2 55161  87.8833  67.2396 0001786  94.4686 265.6646 13.11417875135450
ONEWEB-0621             
1 55162U 23004Y   25301.37575175 -.00000428  00000+0 -12444-2 0  9991
2 55162  87.8845  67.2149 0001373  95.8166 264.3118 13.11415233135423
ONEWEB-0622             
1 55163U 23004Z   25301.38083992 -.00000442  00000+0 -12835-2 0  9994
2 55163  87.8834  67.2282 0001673  71.2930 288.8380 13.11418012135419
ONEWEB-0623             
1 55164U 23004AA  25301.56471746  .00000146  00000+0  34168-3 0  9996
2 55164  87.9116  51.9454 0001256  74.6819 285.4451 13.17652266137089
ONEWEB-0624             
1 55165U 23004AB  25301.51874793 -.00000191  00000+0 -56364-3 0  9995
2 55165  87.8964  36.6554 0001514  94.8821 265.2480 13.12917098137670
ONEWEB-0625             
1 55166U 23004AC  25301.55457996  .00000068  00000+0  14281-3 0  9995
2 55166  87.9116  51.9433 0001709 105.5349 254.5972 13.17650121137075
ONEWEB-0626             
1 55167U 23004AD  25301.54447055  .00000183  00000+0  43867-3 0  9990
2 55167  87.9119  51.9445 0002207  98.7746 261.3636 13.17650493137075
ONEWEB-0627             
1 55168U 23004AE  25301.38078183  .00000094  00000+0  20990-3 0  9998
2 55168  87.9115  51.9780 0001466  80.9789 279.1509 13.17650496137057
ONEWEB-0628             
1 55169U 23004AF  25301.56682536  .00000509  00000+0  13788-2 0  9999
2 55169  87.8974  36.6607 0001124  87.2484 272.8773 13.12442648137653
ONEWEB-0629             
1 55170U 23004AG  25301.35630640  .00000061  00000+0  12334-3 0  9997
2 55170  87.9114  51.9793 0001386 104.5879 255.5407 13.17647118137059
ONEWEB-0631             
1 55171U 23004AH  25301.52606541  .00000022  00000+0  23726-4 0  9995
2 55171  87.9229  21.4402 0002227  89.4780 270.6608 13.18686643139143
ONEWEB-0709             
1 55172U 23004AJ  25301.41476253  .00000517  00000+0  14230-2 0  9996
2 55172  87.8836  67.2442 0002547  97.4034 262.7384 13.11419285135491
